CCSDS_OMM_VERS = 2.0
CREATION_DATE  = 
ORIGINATOR     = 

OBJECT_NAME    = HULIANWANG DIGUI 18D
OBJECT_ID      = 2026-007D
CENTER_NAME    = EARTH
REF_FRAME      = TEME
TIME_SYSTEM    = UTC
MEAN_ELEMENT_THEORY = SGP/SGP4

EPOCH          = 2026-01-14T01:07:59.697408
MEAN_MOTION    = 13.92379883
ECCENTRICITY   = .0008833
INCLINATION    = 50.0064
RA_OF_ASC_NODE = 292.8662
ARG_OF_PERICENTER = 266.5929
MEAN_ANOMALY   = 93.3960

EPHEMERIS_TYPE = 0
CLASSIFICATION_TYPE = U
NORAD_CAT_ID   = 67438
ELEMENT_SET_NO = 999
REV_AT_EPOCH   = 6
BSTAR          = .14444E-4
MEAN_MOTION_DOT = -.128E-5
MEAN_MOTION_DDOT = 0

CCSDS_OMM_VERS = 2.0
CREATION_DATE  = 
ORIGINATOR     = 

OBJECT_NAME    = HULIANWANG DIGUI 18E
OBJECT_ID      = 2026-007E
CENTER_NAME    = EARTH
REF_FRAME      = TEME
TIME_SYSTEM    = UTC
MEAN_ELEMENT_THEORY = SGP/SGP4

EPOCH          = 2026-01-15T06:24:33.374016
MEAN_MOTION    = 13.92625172
ECCENTRICITY   = .00068097
INCLINATION    = 50.0055
RA_OF_ASC_NODE = 287.9872
ARG_OF_PERICENTER = 269.3500
MEAN_ANOMALY   = 90.6620

EPHEMERIS_TYPE = 0
CLASSIFICATION_TYPE = U
NORAD_CAT_ID   = 67439
ELEMENT_SET_NO = 999
REV_AT_EPOCH   = 23
BSTAR          = .15968478E-3
MEAN_MOTION_DOT = .6E-6
MEAN_MOTION_DDOT = 0

CCSDS_OMM_VERS = 2.0
CREATION_DATE  = 
ORIGINATOR     = 

OBJECT_NAME    = HULIANWANG DIGUI 18F
OBJECT_ID      = 2026-007F
CENTER_NAME    = EARTH
REF_FRAME      = TEME
TIME_SYSTEM    = UTC
MEAN_ELEMENT_THEORY = SGP/SGP4

EPOCH          = 2026-01-14T01:07:49.992096
MEAN_MOTION    = 13.92793793
ECCENTRICITY   = .0007454
INCLINATION    = 50.0183
RA_OF_ASC_NODE = 292.8669
ARG_OF_PERICENTER = 266.5335
MEAN_ANOMALY   = 93.4713

EPHEMERIS_TYPE = 0
CLASSIFICATION_TYPE = U
NORAD_CAT_ID   = 67440
ELEMENT_SET_NO = 999
REV_AT_EPOCH   = 6
BSTAR          = .14185E-4
MEAN_MOTION_DOT = -.129E-5
MEAN_MOTION_DDOT = 0

CCSDS_OMM_VERS = 2.0
CREATION_DATE  = 
ORIGINATOR     = 

OBJECT_NAME    = HULIANWANG DIGUI 18G
OBJECT_ID      = 2026-007G
CENTER_NAME    = EARTH
REF_FRAME      = TEME
TIME_SYSTEM    = UTC
MEAN_ELEMENT_THEORY = SGP/SGP4

EPOCH          = 2026-01-14T01:07:49.574784
MEAN_MOTION    = 13.92823192
ECCENTRICITY   = .0006929
INCLINATION    = 50.0166
RA_OF_ASC_NODE = 292.8688
ARG_OF_PERICENTER = 270.2346
MEAN_ANOMALY   = 89.7759

EPHEMERIS_TYPE = 0
CLASSIFICATION_TYPE = U
NORAD_CAT_ID   = 67441
ELEMENT_SET_NO = 999
REV_AT_EPOCH   = 6
BSTAR          = .14174E-4
MEAN_MOTION_DOT = -.129E-5
MEAN_MOTION_DDOT = 0

CCSDS_OMM_VERS = 2.0
CREATION_DATE  = 
ORIGINATOR     = 

OBJECT_NAME    = HULIANWANG DIGUI 18H
OBJECT_ID      = 2026-007H
CENTER_NAME    = EARTH
REF_FRAME      = TEME
TIME_SYSTEM    = UTC
MEAN_ELEMENT_THEORY = SGP/SGP4

EPOCH          = 2026-01-15T04:40:52.414176
MEAN_MOTION    = 13.92837456
ECCENTRICITY   = .00075083
INCLINATION    = 50.0118
RA_OF_ASC_NODE = 288.2781
ARG_OF_PERICENTER = 284.6947
MEAN_ANOMALY   = 75.3120

EPHEMERIS_TYPE = 0
CLASSIFICATION_TYPE = U
NORAD_CAT_ID   = 67442
ELEMENT_SET_NO = 999
REV_AT_EPOCH   = 22
BSTAR          = -.12437436E-3
MEAN_MOTION_DOT = -.309E-5
MEAN_MOTION_DDOT = 0

CCSDS_OMM_VERS = 2.0
CREATION_DATE  = 
ORIGINATOR     = 

OBJECT_NAME    = HULIANWANG DIGUI 18J
OBJECT_ID      = 2026-007J
CENTER_NAME    = EARTH
REF_FRAME      = TEME
TIME_SYSTEM    = UTC
MEAN_ELEMENT_THEORY = SGP/SGP4

EPOCH          = 2026-01-14T01:07:44.968800
MEAN_MOTION    = 13.93030168
ECCENTRICITY   = .0006253
INCLINATION    = 50.0105
RA_OF_ASC_NODE = 292.8675
ARG_OF_PERICENTER = 279.7559
MEAN_ANOMALY   = 80.2635

EPHEMERIS_TYPE = 0
CLASSIFICATION_TYPE = U
NORAD_CAT_ID   = 67443
ELEMENT_SET_NO = 999
REV_AT_EPOCH   = 6
BSTAR          = .14073E-4
MEAN_MOTION_DOT = -.129E-5
MEAN_MOTION_DDOT = 0

CCSDS_OMM_VERS = 2.0
CREATION_DATE  = 
ORIGINATOR     = 

OBJECT_NAME    = CZ-8A R/B
OBJECT_ID      = 2026-007K
CENTER_NAME    = EARTH
REF_FRAME      = TEME
TIME_SYSTEM    = UTC
MEAN_ELEMENT_THEORY = SGP/SGP4

EPOCH          = 2026-01-15T12:38:01.187232
MEAN_MOTION    = 14.13545174
ECCENTRICITY   = .00921234
INCLINATION    = 50.0120
RA_OF_ASC_NODE = 286.7073
ARG_OF_PERICENTER = 89.5859
MEAN_ANOMALY   = 271.5605

EPHEMERIS_TYPE = 0
CLASSIFICATION_TYPE = U
NORAD_CAT_ID   = 67444
ELEMENT_SET_NO = 999
REV_AT_EPOCH   = 26
BSTAR          = -.1544131E-3
MEAN_MOTION_DOT = -.461E-5
MEAN_MOTION_DDOT = 0

CCSDS_OMM_VERS = 2.0
CREATION_DATE  = 
ORIGINATOR     = 

OBJECT_NAME    = ALSAT-3A
OBJECT_ID      = 2026-009A
CENTER_NAME    = EARTH
REF_FRAME      = TEME
TIME_SYSTEM    = UTC
MEAN_ELEMENT_THEORY = SGP/SGP4

EPOCH          = 2026-01-15T14:40:07.476960
MEAN_MOTION    = 15.02864426
ECCENTRICITY   = .00989892
INCLINATION    = 97.1813
RA_OF_ASC_NODE = 90.0403
ARG_OF_PERICENTER = 221.4459
MEAN_ANOMALY   = 137.9231

EPHEMERIS_TYPE = 0
CLASSIFICATION_TYPE = U
NORAD_CAT_ID   = 67474
ELEMENT_SET_NO = 999
REV_AT_EPOCH   = 7
BSTAR          = .18175557E-3
MEAN_MOTION_DOT = .2648E-4
MEAN_MOTION_DDOT = 0

CCSDS_OMM_VERS = 2.0
CREATION_DATE  = 
ORIGINATOR     = 

OBJECT_NAME    = CZ-2C R/B
OBJECT_ID      = 2026-009B
CENTER_NAME    = EARTH
REF_FRAME      = TEME
TIME_SYSTEM    = UTC
MEAN_ELEMENT_THEORY = SGP/SGP4

EPOCH          = 2026-01-15T14:32:01.393152
MEAN_MOTION    = 15.23365371
ECCENTRICITY   = .00114774
INCLINATION    = 97.4729
RA_OF_ASC_NODE = 90.3792
ARG_OF_PERICENTER = 268.0008
MEAN_ANOMALY   = 91.9915

EPHEMERIS_TYPE = 0
CLASSIFICATION_TYPE = U
NORAD_CAT_ID   = 67475
ELEMENT_SET_NO = 999
REV_AT_EPOCH   = 7
BSTAR          = .27611489E-3
MEAN_MOTION_DOT = .6503E-4
MEAN_MOTION_DDOT = 0

