HULIANWANG DIGUI 18D    
1 67438U 26007D   26014.04721872 -.00000128  00000+0  14444-4 0  9999
2 67438  50.0064 292.8662 0008833 266.5929  93.3960 13.92379883    60
HULIANWANG DIGUI 18E    
1 67439U 26007E   26015.26705294  .00000060  00000+0  15968-3 0  9990
2 67439  50.0055 287.9872 0006809 269.3500  90.6620 13.92625172   233
HULIANWANG DIGUI 18F    
1 67440U 26007F   26014.04710639 -.00000129  00000+0  14185-4 0  9994
2 67440  50.0183 292.8669 0007454 266.5335  93.4713 13.92793793    68
HULIANWANG DIGUI 18G    
1 67441U 26007G   26014.04710156 -.00000129  00000+0  14174-4 0  9997
2 67441  50.0166 292.8688 0006929 270.2346  89.7759 13.92823192    66
HULIANWANG DIGUI 18H    
1 67442U 26007H   26015.19505109 -.00000309  00000+0 -12437-3 0  9995
2 67442  50.0118 288.2781 0007508 284.6947  75.3120 13.92837456   226
HULIANWANG DIGUI 18J    
1 67443U 26007J   26014.04704825 -.00000129  00000+0  14073-4 0  9993
2 67443  50.0105 292.8675 0006253 279.7559  80.2635 13.93030168    60
CZ-8A R/B               
1 67444U 26007K   26015.52640263 -.00000461  00000+0 -15441-3 0  9992
2 67444  50.0120 286.7073 0092123  89.5859 271.5605 14.13545174   268
ALSAT-3A                
1 67474U 26009A   26015.61119765  .00002648  00000+0  18176-3 0  9990
2 67474  97.1813  90.0403 0098989 221.4459 137.9231 15.02864426    76
CZ-2C R/B               
1 67475U 26009B   26015.60557168  .00006503  00000+0  27611-3 0  9991
2 67475  97.4729  90.3792 0011477 268.0008  91.9915 15.23365371    70
